[{"OBJECT_NAME":"BUFENG 1A","OBJECT_ID":"2019-032A","EPOCH":"2026-03-09T22:03:27.507168","MEAN_MOTION":15.26012088,"ECCENTRICITY":0.00054719,"INCLINATION":44.9758,"RA_OF_ASC_NODE":238.6688,"ARG_OF_PERICENTER":55.4463,"MEAN_ANOMALY":304.6935,"EPHEMERIS_TYPE":0,"CLASSIFICATION_TYPE":"U","NORAD_CAT_ID":44310,"ELEMENT_SET_NO":999,"REV_AT_EPOCH":37201,"BSTAR":0.00062413703,"MEAN_MOTION_DOT":0.00016103,"MEAN_MOTION_DDOT":0},{"OBJECT_NAME":"STARLINK-31594","OBJECT_ID":"2024-057N","EPOCH":"2026-03-09T09:30:58.688640","MEAN_MOTION":15.2760153,"ECCENTRICITY":0.00032858,"INCLINATION":43.0042,"RA_OF_ASC_NODE":200.0261,"ARG_OF_PERICENTER":297.6612,"MEAN_ANOMALY":62.3906,"EPHEMERIS_TYPE":0,"CLASSIFICATION_TYPE":"U","NORAD_CAT_ID":59332,"ELEMENT_SET_NO":999,"REV_AT_EPOCH":10966,"BSTAR":-0.00024083857,"MEAN_MOTION_DOT":-6.89e-5,"MEAN_MOTION_DDOT":0}]
